{"type": "FeatureCollection", "features": [ {"type": "Feature", "properties": {"norad_id": 33648, "name": "FENGYUN 1C DEB", "group": "fengyun-1c-debris", "lat": -80.6464246614554, "lon": 60.97968478901074, "alt_km": 884.7492266645095, "timestamp": "2025-12-19T18:58:41.874817+00:00", "meta": {"OBJECT_NAME": "FENGYUN 1C DEB", "OBJECT_ID": "1999-025DEH", "EPOCH": "2025-12-17T06:09:31.970592", "MEAN_MOTION": 14.11777499, "ECCENTRICITY": 0.00691141, "INCLINATION": 98.7193, "RA_OF_ASC_NODE": 349.8183, "ARG_OF_PERICENTER": 161.3815, "MEAN_ANOMALY": 198.9909, "EPHEMERIS_TYPE": 0, "CLASSIFICATION_TYPE": "U", "NORAD_CAT_ID": 33648, "ELEMENT_SET_NO": 999, "REV_AT_EPOCH": 64440, "BSTAR": 9.2514074e-05, "MEAN_MOTION_DOT": 1.3e-06, "MEAN_MOTION_DDOT": 0}, "tle": {"line1": "1 33648U 99025DEH 25351.25662003  .00000130  00000+0  92514-4 0  9997", "line2": "2 33648  98.7193 349.8183 0069114 161.3815 198.9909 14.11777499644408"}}, "geometry": {"type": "Point", "coordinates": [60.97968478901074, -80.6464246614554]}}, {"type": "Feature", "properties": {"norad_id": 33650, "name": "FENGYUN 1C DEB", "group": "fengyun-1c-debris", "lat": -21.72382311061303, "lon": -24.99933600623199, "alt_km": 1022.3373334495818, "timestamp": "2025-12-19T18:58:41.874827+00:00", "meta": {"OBJECT_NAME": "FENGYUN 1C DEB", "OBJECT_ID": "1999-025DEK", "EPOCH": "2025-12-16T17:25:23.418336", "MEAN_MOTION": 13.89200794, "ECCENTRICITY": 0.01497023, "INCLINATION": 98.9866, "RA_OF_ASC_NODE": 155.6582, "ARG_OF_PERICENTER": 68.1425, "MEAN_ANOMALY": 293.558, "EPHEMERIS_TYPE": 0, "CLASSIFICATION_TYPE": "U", "NORAD_CAT_ID": 33650, "ELEMENT_SET_NO": 999, "REV_AT_EPOCH": 68864, "BSTAR": 0.00064639635, "MEAN_MOTION_DOT": 8.18e-06, "MEAN_MOTION_DDOT": 0}, "tle": {"line1": "1 33650U 99025DEK 25350.72596549  .00000818  00000+0  64640-3 0  9993", "line2": "2 33650  98.9866 155.6582 0149702  68.1425 293.5580 13.89200794688643"}}, "geometry": {"type": "Point", "coordinates": [-24.99933600623199, -21.72382311061303]}}, {"type": "Feature", "properties": {"norad_id": 33651, "name": "FENGYUN 1C DEB", "group": "fengyun-1c-debris", "lat": -0.6790892616010227, "lon": -140.8772819861724, "alt_km": 897.721609208571, "timestamp": "2025-12-19T18:58:41.874837+00:00", "meta": {"OBJECT_NAME": "FENGYUN 1C DEB", "OBJECT_ID": "1999-025DEL", "EPOCH": "2025-12-17T20:29:25.038528", "MEAN_MOTION": 14.20359237, "ECCENTRICITY": 0.01175795, "INCLINATION": 98.6561, "RA_OF_ASC_NODE": 37.3301, "ARG_OF_PERICENTER": 39.3483, "MEAN_ANOMALY": 321.6163, "EPHEMERIS_TYPE": 0, "CLASSIFICATION_TYPE": "U", "NORAD_CAT_ID": 33651, "ELEMENT_SET_NO": 999, "REV_AT_EPOCH": 64344, "BSTAR": 0.00012967069, "MEAN_MOTION_DOT": 2.55e-06, "MEAN_MOTION_DDOT": 0}, "tle": {"line1": "1 33651U 99025DEL 25351.85376202  .00000255  00000+0  12967-3 0  9991", "line2": "2 33651  98.6561  37.3301 0117579  39.3483 321.6163 14.20359237643441"}}, "geometry": {"type": "Point", "coordinates": [-140.8772819861724, -0.6790892616010227]}}, {"type": "Feature", "properties": {"norad_id": 33655, "name": "FENGYUN 1C DEB", "group": "fengyun-1c-debris", "lat": 39.87536256217599, "lon": 52.49744427817905, "alt_km": 556.3003879247872, "timestamp": "2025-12-19T18:58:41.874851+00:00", "meta": {"OBJECT_NAME": "FENGYUN 1C DEB", "OBJECT_ID": "1999-025DEQ", "EPOCH": "2025-12-18T15:32:46.465728", "MEAN_MOTION": 14.97947249, "ECCENTRICITY": 0.00469882, "INCLINATION": 98.8013, "RA_OF_ASC_NODE": 58.647, "ARG_OF_PERICENTER": 338.9181, "MEAN_ANOMALY": 21.01, "EPHEMERIS_TYPE": 0, "CLASSIFICATION_TYPE": "U", "NORAD_CAT_ID": 33655, "ELEMENT_SET_NO": 999, "REV_AT_EPOCH": 96646, "BSTAR": 0.0012708944, "MEAN_MOTION_DOT": 0.0001528, "MEAN_MOTION_DDOT": 0}, "tle": {"line1": "1 33655U 99025DEQ 25352.64776002  .00015280  00000+0  12709-2 0  9992", "line2": "2 33655  98.8013  58.6470 0046988 338.9181  21.0100 14.97947249966462"}}, "geometry": {"type": "Point", "coordinates": [52.49744427817905, 39.87536256217599]}}, {"type": "Feature", "properties": {"norad_id": 33656, "name": "FENGYUN 1C DEB", "group": "fengyun-1c-debris", "lat": 53.40505285429937, "lon": -25.059783060474643, "alt_km": 763.3697634921127, "timestamp": "2025-12-19T18:58:41.874861+00:00", "meta": {"OBJECT_NAME": "FENGYUN 1C DEB", "OBJECT_ID": "1999-025DER", "EPOCH": "2025-12-08T19:25:37.486560", "MEAN_MOTION": 14.2271982, "ECCENTRICITY": 0.00906449, "INCLINATION": 98.5783, "RA_OF_ASC_NODE": 335.9755, "ARG_OF_PERICENTER": 42.7826, "MEAN_ANOMALY": 318.0362, "EPHEMERIS_TYPE": 0, "CLASSIFICATION_TYPE": "U", "NORAD_CAT_ID": 33656, "ELEMENT_SET_NO": 999, "REV_AT_EPOCH": 62653, "BSTAR": 0.00077976866, "MEAN_MOTION_DOT": 1.78e-05, "MEAN_MOTION_DDOT": 0}, "tle": {"line1": "1 33656U 99025DER 25342.80946165  .00001780  00000+0  77977-3 0  9998", "line2": "2 33656  98.5783 335.9755 0090644  42.7826 318.0362 14.22719820626535"}}, "geometry": {"type": "Point", "coordinates": [-25.059783060474643, 53.40505285429937]}}, {"type": "Feature", "properties": {"norad_id": 33658, "name": "FENGYUN 1C DEB", "group": "fengyun-1c-debris", "lat": 30.94251682098659, "lon": 141.06371258652032, "alt_km": 1161.6266029913195, "timestamp": "2025-12-19T18:58:41.874873+00:00", "meta": {"OBJECT_NAME": "FENGYUN 1C DEB", "OBJECT_ID": "1999-025DET", "EPOCH": "2025-12-18T04:02:26.873376", "MEAN_MOTION": 13.62396751, "ECCENTRICITY": 0.02827821, "INCLINATION": 99.5634, "RA_OF_ASC_NODE": 145.2712, "ARG_OF_PERICENTER": 167.5417, "MEAN_ANOMALY": 193.2908, "EPHEMERIS_TYPE": 0, "CLASSIFICATION_TYPE": "U", "NORAD_CAT_ID": 33658, "ELEMENT_SET_NO": 999, "REV_AT_EPOCH": 58213, "BSTAR": 0.0024065882, "MEAN_MOTION_DOT": 2.398e-05, "MEAN_MOTION_DDOT": 0}, "tle": {"line1": "1 33658U 99025DET 25352.16836659  .00002398  00000+0  24066-2 0  9992", "line2": "2 33658  99.5634 145.2712 0282782 167.5417 193.2908 13.62396751582139"}}, "geometry": {"type": "Point", "coordinates": [141.06371258652032, 30.94251682098659]}}, {"type": "Feature", "properties": {"norad_id": 33660, "name": "FENGYUN 1C DEB", "group": "fengyun-1c-debris", "lat": 10.90676336013635, "lon": -97.16974504756283, "alt_km": 988.8194012505555, "timestamp": "2025-12-19T18:58:41.874889+00:00", "meta": {"OBJECT_NAME": "FENGYUN 1C DEB", "OBJECT_ID": "1999-025DEV", "EPOCH": "2025-12-19T05:51:22.920192", "MEAN_MOTION": 13.91778631, "ECCENTRICITY": 0.01097938, "INCLINATION": 98.6568, "RA_OF_ASC_NODE": 264.002, "ARG_OF_PERICENTER": 228.0355, "MEAN_ANOMALY": 284.4578, "EPHEMERIS_TYPE": 0, "CLASSIFICATION_TYPE": "U", "NORAD_CAT_ID": 33660, "ELEMENT_SET_NO": 999, "REV_AT_EPOCH": 91154, "BSTAR": 0.00031599955, "MEAN_MOTION_DOT": 3.81e-06, "MEAN_MOTION_DDOT": 0}, "tle": {"line1": "1 33660U 99025DEV 25353.24401528  .00000381  00000+0  31600-3 0  9991", "line2": "2 33660  98.6568 264.0020 0109793 228.0355 284.4578 13.91778631911544"}}, "geometry": {"type": "Point", "coordinates": [-97.16974504756283, 10.90676336013635]}}, {"type": "Feature", "properties": {"norad_id": 33663, "name": "FENGYUN 1C DEB", "group": "fengyun-1c-debris", "lat": 75.29002394471144, "lon": -51.06383767649665, "alt_km": 673.7238984362075, "timestamp": "2025-12-19T18:58:41.874899+00:00", "meta": {"OBJECT_NAME": "FENGYUN 1C DEB", "OBJECT_ID": "1999-025DEY", "EPOCH": "2025-12-14T05:36:34.659936", "MEAN_MOTION": 14.62128148, "ECCENTRICITY": 0.0081413, "INCLINATION": 98.8858, "RA_OF_ASC_NODE": 339.5398, "ARG_OF_PERICENTER": 9.0436, "MEAN_ANOMALY": 351.2208, "EPHEMERIS_TYPE": 0, "CLASSIFICATION_TYPE": "U", "NORAD_CAT_ID": 33663, "ELEMENT_SET_NO": 999, "REV_AT_EPOCH": 64224, "BSTAR": 0.0064692056, "MEAN_MOTION_DOT": 0.00034209, "MEAN_MOTION_DDOT": 0}, "tle": {"line1": "1 33663U 99025DEY 25348.23373449  .00034209  00000+0  64692-2 0  9999", "line2": "2 33663  98.8858 339.5398 0081413   9.0436 351.2208 14.62128148642244"}}, "geometry": {"type": "Point", "coordinates": [-51.06383767649665, 75.29002394471144]}}, {"type": "Feature", "properties": {"norad_id": 33664, "name": "FENGYUN 1C DEB", "group": "fengyun-1c-debris", "lat": -74.60235186037936, "lon": 176.01675257050408, "alt_km": 900.9346575291511, "timestamp": "2025-12-19T18:58:41.874909+00:00", "meta": {"OBJECT_NAME": "FENGYUN 1C DEB", "OBJECT_ID": "1999-025DEZ", "EPOCH": "2025-12-17T09:11:19.801248", "MEAN_MOTION": 14.03997505, "ECCENTRICITY": 0.01641224, "INCLINATION": 98.6999, "RA_OF_ASC_NODE": 139.9327, "ARG_OF_PERICENTER": 27.0521, "MEAN_ANOMALY": 333.9084, "EPHEMERIS_TYPE": 0, "CLASSIFICATION_TYPE": "U", "NORAD_CAT_ID": 33664, "ELEMENT_SET_NO": 999, "REV_AT_EPOCH": 90804, "BSTAR": 0.00016492349, "MEAN_MOTION_DOT": 2.52e-06, "MEAN_MOTION_DDOT": 0}, "tle": {"line1": "1 33664U 99025DEZ 25351.38286807  .00000252  00000+0  16492-3 0  9998", "line2": "2 33664  98.6999 139.9327 0164122  27.0521 333.9084 14.03997505908045"}}, "geometry": {"type": "Point", "coordinates": [176.01675257050408, -74.60235186037936]}}, {"type": "Feature", "properties": {"norad_id": 33665, "name": "FENGYUN 1C DEB", "group": "fengyun-1c-debris", "lat": 24.555901555600865, "lon": 107.11752735003587, "alt_km": 649.2253607559787, "timestamp": "2025-12-19T18:58:41.874919+00:00", "meta": {"OBJECT_NAME": "FENGYUN 1C DEB", "OBJECT_ID": "1999-025DFA", "EPOCH": "2025-12-18T13:46:59.892384", "MEAN_MOTION": 14.03665713, "ECCENTRICITY": 0.04555822, "INCLINATION": 99.0215, "RA_OF_ASC_NODE": 110.0686, "ARG_OF_PERICENTER": 75.9481, "MEAN_ANOMALY": 289.1879, "EPHEMERIS_TYPE": 0, "CLASSIFICATION_TYPE": "U", "NORAD_CAT_ID": 33665, "ELEMENT_SET_NO": 999, "REV_AT_EPOCH": 92673, "BSTAR": 0.0003908797, "MEAN_MOTION_DOT": 1.51e-05, "MEAN_MOTION_DDOT": 0}, "tle": {"line1": "1 33665U 99025DFA 25352.57430431  .00001510  00000+0  39088-3 0  9999", "line2": "2 33665  99.0215 110.0686 0455582  75.9481 289.1879 14.03665713926733"}}, "geometry": {"type": "Point", "coordinates": [107.11752735003587, 24.555901555600865]}}]}